{
    "links": {
        "self": "http://www.neowsapp.com/rest/v1/neo/3604306?api_key=iIulBulltgU6a56xZRHN4H3l9WmuAYTsLGpBGhQ2"
    },
    "id": "3604306",
    "neo_reference_id": "3604306",
    "name": "(2012 KB6)",
    "designation": "2012 KB6",
    "nasa_jpl_url": "http://ssd.jpl.nasa.gov/sbdb.cgi?sstr=3604306",
    "absolute_magnitude_h": 25.0,
    "estimated_diameter": {
        "kilometers": {
            "estimated_diameter_min": 0.02658,
            "estimated_diameter_max": 0.0594346868
        },
        "meters": {
            "estimated_diameter_min": 26.58,
            "estimated_diameter_max": 59.4346868419
        },
        "miles": {
            "estimated_diameter_min": 0.0165160412,
            "estimated_diameter_max": 0.0369309908
        },
        "feet": {
            "estimated_diameter_min": 87.2047272,
            "estimated_diameter_max": 194.9956979785
        }
    },
    "is_potentially_hazardous_asteroid": false,
    "close_approach_data": [
        {
            "close_approach_date": "2011-12-20",
            "close_approach_date_full": "2011-Dec-20 07:51",
            "epoch_date_close_approach": 1324367460000,
            "relative_velocity": {
                "kilometers_per_second": "5.4702253977",
                "kilometers_per_hour": "19692.8114317232",
                "miles_per_hour": "12236.3471921171"
            },
            "miss_distance": {
                "astronomical": "0.3298588459",
                "lunar": "128.3150910551",
                "kilometers": "49346180.747298233",
                "miles": "30662294.8868642954"
            },
            "orbiting_body": "Earth"
        },
        {
            "close_approach_date": "2012-05-06",
            "close_approach_date_full": "2012-May-06 09:42",
            "epoch_date_close_approach": 1336297320000,
            "relative_velocity": {
                "kilometers_per_second": "8.7159379197",
                "kilometers_per_hour": "31377.3765110818",
                "miles_per_hour": "19496.6815326775"
            },
            "miss_distance": {
                "astronomical": "0.06499109",
                "lunar": "25.28153401",
                "kilometers": "9722528.6329783",
                "miles": "6041299.15376854"
            },
            "orbiting_body": "Earth"
        }
    ],
    "orbital_data": {
        "orbit_id": "6",
        "orbit_determination_date": "2019-07-19 05:25:40",
        "first_observation_date": "2012-05-18",
        "last_observation_date": "2012-05-21",
        "data_arc_in_days": 3,
        "observations_used": 16,
        "orbit_uncertainty": "8",
        "minimum_orbit_intersection": ".0575524",
        "jupiter_tisserand_invariant": "4.784",
        "epoch_osculation": "2456067.5",
        "eccentricity": ".3133369526567332",
        "semi_major_axis": "1.36138304206858",
        "inclination": "8.078720398936619",
        "ascending_node_longitude": "63.34039796637679",
        "orbital_period": "580.1882533419043",
        "perihelion_distance": ".9348114282682578",
        "perihelion_argument": "105.628802973685",
        "aphelion_distance": "1.787954655868902",
        "perihelion_time": "2456006.250630541769",
        "mean_anomaly": "38.00451470355649",
        "mean_motion": ".6204882603644379",
        "equinox": "J2000",
        "orbit_class": {
            "orbit_class_type": "APO",
            "orbit_class_description": "Near-Earth asteroid orbits which cross the Earth’s orbit similar to that of 1862 Apollo",
            "orbit_class_range": "a (semi-major axis) > 1.0 AU; q (perihelion) < 1.017 AU"
        }
    },
    "is_sentry_object": false
}